[
    {
        "Altitude(m)": 624790.800515557,
        "Argument of Periapsis(deg)": 0.0,
        "Eccentricity": 0.0,
        "Inclination(deg)": 60.0,
        "Latitude(deg)": -59.14713212432643,
        "Longitude(deg)": -178.96555597073248,
        "Mean Anomaly(deg)": -81.8182,
        "RAAN(deg)": 355.0,
        "Satellite Name": "Test1 1579",
        "Satellite Number": 1579,
        "Semi-Major Axis(m)": 6980739.136638005,
        "Time(s)": 0
    },
    {
        "Altitude(m)": 624737.4562266553,
        "Argument of Periapsis(deg)": 0.00010418945913296404,
        "Eccentricity": 0.0,
        "Inclination(deg)": 60.0,
        "Latitude(deg)": -58.994589161703594,
        "Longitude(deg)": -177.8460523938822,
        "Mean Anomaly(deg)": -81.19809385453816,
        "RAAN(deg)": 354.99957995086027,
        "Satellite Name": "Test1 1579",
        "Satellite Number": 1579,
        "Semi-Major Axis(m)": 6980739.136638005,
        "Time(s)": 10
    }
]